ONEWEB-0220             
1 48232U 21031Y   24095.90166671  .00000166  00000+0  41345-3 0  9994
2 48232  87.8891  89.5639 0002264  95.2078 264.9310 13.14504387142870
ONEWEB-0199             
1 48234U 21031AA  24095.91435226 -.00000044  00000+0 -15407-3 0  9999
2 48234  87.8899  89.5438 0001999  91.0147 269.1211 13.14504175142739
ONEWEB-0203             
1 48235U 21031AB  24095.90484412  .00000151  00000+0  37277-3 0  9996
2 48235  87.8900  89.5470 0001385  85.6729 274.4559 13.14503272142745
ONEWEB-0193             
1 48238U 21031AE  24095.72247771  .00000072  00000+0  15838-3 0  9995
2 48238  87.8897  89.5917 0001819  92.7939 267.3399 13.14504004142751
ONEWEB-0191             
1 48239U 21031AF  24095.50523094  .00000293  00000+0  75479-3 0  9999
2 48239  87.8894  89.6209 0001853  89.7543 270.3799 13.14503217142583
